IRIDIUM 57 [-]          
1 25273U 98019B   23287.59431732  .00000946  00000+0  32604-3 0  9998
2 25273  86.3995  41.3487 0002107  92.0584 268.0854 14.34940099337050
IRIDIUM 63 [-]          
1 25286U 98021B   23287.56837662  .00000806  00000+0  27402-3 0  9999
2 25286  86.4009 338.3336 0002384  92.2600 267.8869 14.35446185336073
IRIDIUM 69 [-]          
1 25319U 98026A   23287.59054431  .00000974  00000+0  30551-3 0  9994
2 25319  86.4034 353.4158 0001297 167.9438 192.1792 14.39617079335035
IRIDIUM 71 [-]          
1 25320U 98026B   23287.57645311  .00000972  00000+0  30283-3 0  9997
2 25320  86.4021 348.2547 0001165  21.9686 338.1563 14.39952017335543
IRIDIUM 73 [-]          
1 25344U 98032C   23287.57475429  .00001090  00000+0  27608-3 0  9990
2 25344  86.4379 306.0865 0001660  97.1330 263.0064 14.50068725341884
IRIDIUM 82 [-]          
1 25467U 98051A   23287.57208491  .00016111  00000+0  94130-3 0  9994
2 25467  86.3971  41.7186 0147538  42.3534 318.8977 15.02946161331360
IRIDIUM 2 [-]           
1 25527U 98066A   23287.54435606  .00052617  00000+0  12291-2 0  9992
2 25527  85.5145  98.8583 0004486 182.5678 177.5553 15.41967835369517
